[{"COMMENT":"GENERATED VIA SPACETRACK.ORG API","ORIGINATOR":"18 SPCS","NORAD_CAT_ID":"43477","OBJECT_NAME":"GRACE-FO 2","OBJECT_TYPE":"PAYLOAD","CLASSIFICATION_TYPE":"U","INTLDES":"18047B","EPOCH":"2023-11-09 12:50:12","EPOCH_MICROSECONDS":"815520","MEAN_MOTION":"15.27292138","ECCENTRICITY":"0.0013043","INCLINATION":"88.9823","RA_OF_ASC_NODE":"329.4091","ARG_OF_PERICENTER":"185.2553","MEAN_ANOMALY":"174.8562","EPHEMERIS_TYPE":"0","ELEMENT_SET_NO":"999","REV_AT_EPOCH":"30417","BSTAR":"0.00017545","MEAN_MOTION_DOT":"0.00004727","MEAN_MOTION_DDOT":"0","FILE":"4080359","TLE_LINE0":"0 GRACE-FO 2","TLE_LINE1":"1 43477U 18047B   23313.53487055  .00004727  00000-0  17545-3 0  9999","TLE_LINE2":"2 43477  88.9823 329.4091 0013043 185.2553 174.8562 15.27292138304171","OBJECT_ID":"2018-047B","OBJECT_NUMBER":"43477","SEMIMAJOR_AXIS":"6862.048","PERIOD":"94.285","APOGEE":"492.863","PERIGEE":"474.963","DECAYED":"0"},{"COMMENT":"GENERATED VIA SPACETRACK.ORG API","ORIGINATOR":"18 SPCS","NORAD_CAT_ID":"43477","OBJECT_NAME":"GRACE-FO 2","OBJECT_TYPE":"PAYLOAD","CLASSIFICATION_TYPE":"U","INTLDES":"18047B","EPOCH":"2023-11-09 22:16:19","EPOCH_MICROSECONDS":"57440","MEAN_MOTION":"15.27295267","ECCENTRICITY":"0.0013101","INCLINATION":"88.9821","RA_OF_ASC_NODE":"329.3553","ARG_OF_PERICENTER":"183.7464","MEAN_ANOMALY":"176.3689","EPHEMERIS_TYPE":"0","ELEMENT_SET_NO":"999","REV_AT_EPOCH":"30423","BSTAR":"0.00017017","MEAN_MOTION_DOT":"0.00004586","MEAN_MOTION_DDOT":"0","FILE":"4080838","TLE_LINE0":"0 GRACE-FO 2","TLE_LINE1":"1 43477U 18047B   23313.92799835  .00004586  00000-0  17017-3 0  9991","TLE_LINE2":"2 43477  88.9821 329.3553 0013101 183.7464 176.3689 15.27295267304230","OBJECT_ID":"2018-047B","OBJECT_NUMBER":"43477","SEMIMAJOR_AXIS":"6862.039","PERIOD":"94.284","APOGEE":"492.894","PERIGEE":"474.914","DECAYED":"0"},{"COMMENT":"GENERATED VIA SPACETRACK.ORG API","ORIGINATOR":"18 SPCS","NORAD_CAT_ID":"43477","OBJECT_NAME":"GRACE-FO 2","OBJECT_TYPE":"PAYLOAD","CLASSIFICATION_TYPE":"U","INTLDES":"18047B","EPOCH":"2023-11-10 13:59:49","EPOCH_MICROSECONDS":"259328","MEAN_MOTION":"15.27301532","ECCENTRICITY":"0.001324","INCLINATION":"88.9819","RA_OF_ASC_NODE":"329.2656","ARG_OF_PERICENTER":"181.2094","MEAN_ANOMALY":"178.9126","EPHEMERIS_TYPE":"0","ELEMENT_SET_NO":"999","REV_AT_EPOCH":"30433","BSTAR":"0.00017373","MEAN_MOTION_DOT":"0.00004682","MEAN_MOTION_DDOT":"0","FILE":"4082124","TLE_LINE0":"0 GRACE-FO 2","TLE_LINE1":"1 43477U 18047B   23314.58320902  .00004682  00000-0  17373-3 0  9991","TLE_LINE2":"2 43477  88.9819 329.2656 0013240 181.2094 178.9126 15.27301532304334","OBJECT_ID":"2018-047B","OBJECT_NUMBER":"43477","SEMIMAJOR_AXIS":"6862.020","PERIOD":"94.284","APOGEE":"492.970","PERIGEE":"474.800","DECAYED":"0"},{"COMMENT":"GENERATED VIA SPACETRACK.ORG API","ORIGINATOR":"18 SPCS","NORAD_CAT_ID":"43477","OBJECT_NAME":"GRACE-FO 2","OBJECT_TYPE":"PAYLOAD","CLASSIFICATION_TYPE":"U","INTLDES":"18047B","EPOCH":"2023-11-10 18:42:52","EPOCH_MICROSECONDS":"290432","MEAN_MOTION":"15.27302834","ECCENTRICITY":"0.0013282","INCLINATION":"88.9818","RA_OF_ASC_NODE":"329.2387","ARG_OF_PERICENTER":"180.4441","MEAN_ANOMALY":"179.6799","EPHEMERIS_TYPE":"0","ELEMENT_SET_NO":"999","REV_AT_EPOCH":"30436","BSTAR":"0.00016688","MEAN_MOTION_DOT":"0.00004499","MEAN_MOTION_DDOT":"0","FILE":"4082236","TLE_LINE0":"0 GRACE-FO 2","TLE_LINE1":"1 43477U 18047B   23314.77977188  .00004499  00000-0  16688-3 0  9990","TLE_LINE2":"2 43477  88.9818 329.2387 0013282 180.4441 179.6799 15.27302834304360","OBJECT_ID":"2018-047B","OBJECT_NUMBER":"43477","SEMIMAJOR_AXIS":"6862.016","PERIOD":"94.284","APOGEE":"492.995","PERIGEE":"474.767","DECAYED":"0"},{"COMMENT":"GENERATED VIA SPACETRACK.ORG API","ORIGINATOR":"18 SPCS","NORAD_CAT_ID":"43477","OBJECT_NAME":"GRACE-FO 2","OBJECT_TYPE":"PAYLOAD","CLASSIFICATION_TYPE":"U","INTLDES":"18047B","EPOCH":"2023-11-10 21:51:34","EPOCH_MICROSECONDS":"289856","MEAN_MOTION":"15.2730297","ECCENTRICITY":"0.0013311","INCLINATION":"88.9817","RA_OF_ASC_NODE":"329.2208","ARG_OF_PERICENTER":"179.9701","MEAN_ANOMALY":"180.1551","EPHEMERIS_TYPE":"0","ELEMENT_SET_NO":"999","REV_AT_EPOCH":"30438","BSTAR":"0.00015149","MEAN_MOTION_DOT":"0.00004087","MEAN_MOTION_DDOT":"0","FILE":"4082691","TLE_LINE0":"0 GRACE-FO 2","TLE_LINE1":"1 43477U 18047B   23314.91081354  .00004087  00000-0  15149-3 0  9991","TLE_LINE2":"2 43477  88.9817 329.2208 0013311 179.9701 180.1551 15.27302970304382","OBJECT_ID":"2018-047B","OBJECT_NUMBER":"43477","SEMIMAJOR_AXIS":"6862.016","PERIOD":"94.284","APOGEE":"493.015","PERIGEE":"474.747","DECAYED":"0"},{"COMMENT":"GENERATED VIA SPACETRACK.ORG API","ORIGINATOR":"18 SPCS","NORAD_CAT_ID":"43477","OBJECT_NAME":"GRACE-FO 2","OBJECT_TYPE":"PAYLOAD","CLASSIFICATION_TYPE":"U","INTLDES":"18047B","EPOCH":"2023-11-11 13:35:04","EPOCH_MICROSECONDS":"214400","MEAN_MOTION":"15.27308974","ECCENTRICITY":"0.001345","INCLINATION":"88.9815","RA_OF_ASC_NODE":"329.131","ARG_OF_PERICENTER":"177.4599","MEAN_ANOMALY":"182.6721","EPHEMERIS_TYPE":"0","ELEMENT_SET_NO":"999","REV_AT_EPOCH":"30448","BSTAR":"0.00015608","MEAN_MOTION_DOT":"0.00004211","MEAN_MOTION_DDOT":"0","FILE":"4083845","TLE_LINE0":"0 GRACE-FO 2","TLE_LINE1":"1 43477U 18047B   23315.56602100  .00004211  00000-0  15608-3 0  9990","TLE_LINE2":"2 43477  88.9815 329.1310 0013450 177.4599 182.6721 15.27308974304482","OBJECT_ID":"2018-047B","OBJECT_NUMBER":"43477","SEMIMAJOR_AXIS":"6861.998","PERIOD":"94.283","APOGEE":"493.092","PERIGEE":"474.633","DECAYED":"0"},{"COMMENT":"GENERATED VIA SPACETRACK.ORG API","ORIGINATOR":"18 SPCS","NORAD_CAT_ID":"43477","OBJECT_NAME":"GRACE-FO 2","OBJECT_TYPE":"PAYLOAD","CLASSIFICATION_TYPE":"U","INTLDES":"18047B","EPOCH":"2023-11-11 19:52:28","EPOCH_MICROSECONDS":"138080","MEAN_MOTION":"15.27310752","ECCENTRICITY":"0.0013506","INCLINATION":"88.9814","RA_OF_ASC_NODE":"329.0951","ARG_OF_PERICENTER":"176.4482","MEAN_ANOMALY":"183.6866","EPHEMERIS_TYPE":"0","ELEMENT_SET_NO":"999","REV_AT_EPOCH":"30452","BSTAR":"0.00015035","MEAN_MOTION_DOT":"0.00004058","MEAN_MOTION_DDOT":"0","FILE":"4083921","TLE_LINE0":"0 GRACE-FO 2","TLE_LINE1":"1 43477U 18047B   23315.82810345  .00004058  00000-0  15035-3 0  9994","TLE_LINE2":"2 43477  88.9814 329.0951 0013506 176.4482 183.6866 15.27310752304526","OBJECT_ID":"2018-047B","OBJECT_NUMBER":"43477","SEMIMAJOR_AXIS":"6861.992","PERIOD":"94.283","APOGEE":"493.125","PERIGEE":"474.590","DECAYED":"0"},{"COMMENT":"GENERATED VIA SPACETRACK.ORG API","ORIGINATOR":"18 SPCS","NORAD_CAT_ID":"43477","OBJECT_NAME":"GRACE-FO 2","OBJECT_TYPE":"PAYLOAD","CLASSIFICATION_TYPE":"U","INTLDES":"18047B","EPOCH":"2023-11-11 21:26:49","EPOCH_MICROSECONDS":"102368","MEAN_MOTION":"15.27310007","ECCENTRICITY":"0.0013521","INCLINATION":"88.9814","RA_OF_ASC_NODE":"329.0861","ARG_OF_PERICENTER":"176.1923","MEAN_ANOMALY":"183.9432","EPHEMERIS_TYPE":"0","ELEMENT_SET_NO":"999","REV_AT_EPOCH":"30453","BSTAR":"0.00012773","MEAN_MOTION_DOT":"0.00003452","MEAN_MOTION_DDOT":"0","FILE":"4084458","TLE_LINE0":"0 GRACE-FO 2","TLE_LINE1":"1 43477U 18047B   23315.89362387  .00003452  00000-0  12773-3 0  9992","TLE_LINE2":"2 43477  88.9814 329.0861 0013521 176.1923 183.9432 15.27310007304536","OBJECT_ID":"2018-047B","OBJECT_NUMBER":"43477","SEMIMAJOR_AXIS":"6861.995","PERIOD":"94.283","APOGEE":"493.138","PERIGEE":"474.582","DECAYED":"0"},{"COMMENT":"GENERATED VIA SPACETRACK.ORG API","ORIGINATOR":"18 SPCS","NORAD_CAT_ID":"43477","OBJECT_NAME":"GRACE-FO 2","OBJECT_TYPE":"PAYLOAD","CLASSIFICATION_TYPE":"U","INTLDES":"18047B","EPOCH":"2023-11-12 13:10:18","EPOCH_MICROSECONDS":"798816","MEAN_MOTION":"15.27316013","ECCENTRICITY":"0.0013641","INCLINATION":"88.9813","RA_OF_ASC_NODE":"328.9961","ARG_OF_PERICENTER":"173.7543","MEAN_ANOMALY":"186.3879","EPHEMERIS_TYPE":"0","ELEMENT_SET_NO":"999","REV_AT_EPOCH":"30463","BSTAR":"0.0001481","MEAN_MOTION_DOT":"0.00003999","MEAN_MOTION_DDOT":"0","FILE":"4085556","TLE_LINE0":"0 GRACE-FO 2","TLE_LINE1":"1 43477U 18047B   23316.54882869  .00003999  00000-0  14810-3 0  9997","TLE_LINE2":"2 43477  88.9813 328.9961 0013641 173.7543 186.3879 15.27316013304634","OBJECT_ID":"2018-047B","OBJECT_NUMBER":"43477","SEMIMAJOR_AXIS":"6861.977","PERIOD":"94.283","APOGEE":"493.202","PERIGEE":"474.481","DECAYED":"0"},{"COMMENT":"GENERATED VIA SPACETRACK.ORG API","ORIGINATOR":"18 SPCS","NORAD_CAT_ID":"43477","OBJECT_NAME":"GRACE-FO 2","OBJECT_TYPE":"PAYLOAD","CLASSIFICATION_TYPE":"U","INTLDES":"18047B","EPOCH":"2023-11-12 21:02:03","EPOCH_MICROSECONDS":"571008","MEAN_MOTION":"15.27317208","ECCENTRICITY":"0.0013731","INCLINATION":"88.9813","RA_OF_ASC_NODE":"328.9513","ARG_OF_PERICENTER":"172.4682","MEAN_ANOMALY":"187.6777","EPHEMERIS_TYPE":"0","ELEMENT_SET_NO":"999","REV_AT_EPOCH":"30468","BSTAR":"0.00013116","MEAN_MOTION_DOT":"0.00003545","MEAN_MOTION_DDOT":"0","FILE":"4086163","TLE_LINE0":"0 GRACE-FO 2","TLE_LINE1":"1 43477U 18047B   23316.87643022  .00003545  00000-0  13116-3 0  9994","TLE_LINE2":"2 43477  88.9813 328.9513 0013731 172.4682 187.6777 15.27317208304680","OBJECT_ID":"2018-047B","OBJECT_NUMBER":"43477","SEMIMAJOR_AXIS":"6861.973","PERIOD":"94.283","APOGEE":"493.260","PERIGEE":"474.416","DECAYED":"0"}]